sort,partner_type,country,company,address,telephone,fax,img_filename,company_link
ASIA PACIFIC,distributor,Australia,Endy Australia,"1/14 Wellington Street, Acacia Ridge Brisbane QLD 4110",TEL: 1300 725 323 Press option 1,FAX: ,Endy Australia.png,http://www.endy.com.au
ASIA PACIFIC,distributor,Australia,Newgen Systems,"Newgen Systems Pty Ltd Suite 401, 737 Burwood Road Hawthorn East 3123",TEL: +61 (0) 3 9894 5130,FAX: +61 (0) 3 9894 5131,Newgen Systems.png,http://www.newgensystems.com/
ASIA PACIFIC,distributor,Bangladesh,Richman Informatics,"Navana DH Tower, Suite # 502, 6 Panthopath, Dhaka-1215, Bangladesh",TEL: +880 (2) 9143683,FAX: ,Richman Informatics.png,http://www.richman.com.bd/
ASIA PACIFIC,distributor,China,ATAN,"1F, 63, No.421, Hong Cao Rd., Shanghai 200233 China",TEL: +86-21-64859922 ext:3806,FAX: ,ATAN.png,
ASIA PACIFIC,distributor,China,Nocsys,"1st Floor, No. 63 Building, No. 421 Hong Cao Road, Xuhui District, Shanghai, China",TEL: +86-21-3497 0308,FAX: +86-21-6495 7934,Nocsys.png,http://www.nocsys.cn
ASIA PACIFIC,distributor,India,SEC Communications Pvt Ltd.,"# 3675, Prerana, Ground Floor, 8th Cross, HAL 2nd Stage, Bangalore","TEL: +91-80-25210886, +91-80-42286554",FAX: +91-80-25210886,SEC Communications Pvt Ltd..png,www.seccom.org
ASIA PACIFIC,distributor,India,Tara Consultants Pvt Ltd.,"#307 , 3rd Floor , Osian Building Building No-12, Nehru Place, New Delhi-110019",TEL: +919811686026,FAX: ,Tara Consultants Pvt Ltd..png,http://www.tcplonline.com/
ASIA PACIFIC,distributor,India,Electronic Product Services India Pvt. Ltd.,"Jupiter 1, 30:1, 4th Cross, 7th Block, Jayanagar West, Bangalore",TEL: +91 98733-81338,FAX: 080-26770048,Electronic Product Services India Pvt. Ltd..png,https://www.epsglobal.com/manufacturers/edgecore
ASIA PACIFIC,distributor,Indonesia,PT. AFC Dinamika Indonesia,"Jalan Pangeran Jayakarta No.129, Blok D30. Jakarta 10730, Indonesia",TEL: +6221 6266546,FAX: +6221 6246409,PT. AFC Dinamika Indonesia.png,http://www.afcwave.co.id/
ASIA PACIFIC,distributor,Indonesia,PT. Mega Komputindo Lestari,"Wima Cormic, Blok A4-7, Jl. Suryopranoto No. 1-9 Jakarta Pusat, 10160, Indonesia","TEL: +6221-3501188, 3501555",FAX: +6221-3503180,PT. Mega Komputindo Lestari.png,http://www.mkl.co.id
ASIA PACIFIC,distributor,Japan,"APRESIA Systems, Ltd.","8F, Tsukiji Daiichi Nagaoka Bldg. 2-3-4 Tsukiji, Chuo-ku, Tokyo 104-0045, Japan",TEL: 03-6369-0401,FAX: 03-3549-0455,"APRESIA Systems, Ltd..png",http://www.apresia.jp/products/whitebox/edgecore/index.html
ASIA PACIFIC,distributor,Malaysia,ECode Technologies Sdn Bhd,"B-5-2, Block B, Ativo Plaza,  Jalan PJU 9/1, Damansara Avenue, Bandar Sri Damansara,  52200 Kuala Lumpur, Malaysia",TEL: +6019 651 8946,FAX: +603 6263 8946,ECode Technologies Sdn Bhd.png,https://www.ecode.com.my/
ASIA PACIFIC,distributor,Myanmar,Loi Heng International,"Yangong office: 253(B), Seikkan Thar Street [Upper block] Kyauktada Township",TEL: (01) 246221/ (01) 372841,FAX: ,Loi Heng International.png,http://loiheng.com/
ASIA PACIFIC,distributor,Myanmar,Loi Heng International,"Mandalay Office: 16,34th Street Between 78th & 79th Street ChanAyeTharZan Township",TEL: 02) 31 660/ (01) 120 3474,FAX: ,Loi Heng International.png,http://loiheng.com/
ASIA PACIFIC,distributor,Nepal,Green Cube Technologies Pvt. Ltd.,"New Baneshwor, Kathmandu, Nepal",TEL: 01-4787059,FAX: ,Green Cube Technologies Pvt. Ltd..png,https://greencube.com.np/
ASIA PACIFIC,distributor,New Zealand,Computer Dynamics Limited,"130 Bush Road, North Harbour Industrial Estate, Albany, Auckland",TEL: 64 9 415 9002,FAX: 64 9 415 9003,Computer Dynamics Limited.png,http://www.cdlnz.com
ASIA PACIFIC,distributor,Philippines,"BANBROS COMMERCIAL., INC.","#32 Pilar St. Corner Araullo St., Addition Hills, San Juan City",TEL: 63-2-7051700,FAX: 63-2-7272955,"BANBROS COMMERCIAL., INC..png",http://www.banbros.ph/
ASIA PACIFIC,distributor,Singapore,Starview International Pte Ltd,60 Kaki Bukit Place #05-19 Eunos Techpark Singapore 415979,TEL: +65 3157 5338,FAX: +65 3112 8181,Starview International Pte Ltd.png,http://www.starviewint.com/
ASIA PACIFIC,distributor,South Korea,INFO-A Inc,"701, 26, Seoul Forest A-Tower, Sung Dong-Gu, Seoul, Korea, 04779",TEL: 82 2 6077 7550,FAX: 82 2 6937 1640,INFO-A Inc.png,http://www.in4a.co.kr 
ASIA PACIFIC,distributor,South Korea,"YESCNC CO., LTD","1005, Seoulseup IT Valley, 77, Seongsuil-ro, Seongdong-gu, Seoul, Korea, Zip.04790",TEL: +82-2-3471-1475,FAX: +82-2-3471-1478,"YESCNC CO., LTD.png",http://www.yescnc.co.kr/
ASIA PACIFIC,distributor,South Korea,"UNICLASS KOREA Co.,Ltd","#30, B2, Yongsan i-pia, 9, Cheongpa-ro 20-gil, Yongsan-gu, Seoul, Korea",TEL: 02-3272-7931,FAX: 82-2-3272-7933,"UNICLASS KOREA Co.,Ltd.png",http://www.lanoasis.com/main/index.php
ASIA PACIFIC,distributor,South Korea,"ELC Networks Co., LTD","1207, 306, Digital-ro, Guro-gu, Seoul, Korea, 08378",TEL: 02-865-1138,FAX: 02-837-1138,"ELC Networks Co., LTD.png",http://www.elcnet.co.kr/
ASIA PACIFIC,distributor,Taiwan,Xander international corp. ,"5F., No.531, Zhongzheng Rd., Xindian Dist., New Taipei City 231, Taiwan (R.O.C.)",TEL: (02)2219-1600,FAX: ,Xander international corp. .png,http://www.xander.com.tw/
ASIA PACIFIC,distributor,Taiwan,SilverShine Technology Inc.,"Rm. 1, 2F., No.18, Ln. 48, Xingshan Rd.Neihu Dist., Taipei City 11469 Taiwan (R.O.C.)",TEL: +886-2-8792-6128,FAX: +886-2-8792-1858,SilverShine Technology Inc..png,http://www.silvershine.com.tw/
ASIA PACIFIC,distributor,Thailand,"Easy Net Co.,Ltd. ","162/45 Sudsawat road, Khwaeng Rat Burana Khet Rat Burana, Bangkok Thailand 10140",TEL: +66 (0)81722 6111,FAX: ,"Easy Net Co.,Ltd. .png",http://www.easynetwork.co.th
ASIA PACIFIC,distributor,Thailand,"DATA IN MOTION CO., LTD.","25 AlmaLink Building 9th, Soi Chidlom, Ploenchit Road, Lumpini, Patumwan, BKK 10330",TEL: +66-2-255-6691,FAX: +66-2-255-6690,"DATA IN MOTION CO., LTD..png",http://www.datainmotion.co.th/
ASIA PACIFIC,distributor,Vietnam,NETMARK DISTRIBUTION,"37 Sixth Street, Cityland Park Hills, Go Vap District, Ho Chi Minh City, Vietnam",TEL: (84) 906 814 510,FAX: ,NETMARK DISTRIBUTION.png,http://www.netmark.com.vn
ASIA PACIFIC,reseller,Brunei,C. F. KING Enterprise,"Unit 23, Bgn Awg Hj Matussin H.M. dan Hj Abdullah H.A. dan Adik-beradik Kg. Kiulap, Bandar Seri Begawan, Negara Brunei Darussalam BE1518","TEL: +673 2237382, 2237383, 7188180","FAX: +673 2237380, 2237381",C. F. KING Enterprise.png,https://www.cfking.com/
ASIA PACIFIC,reseller,Cambodia,Campura Triangulum Corporation,"No.63BIS, Street 608, Sangkart Beng Kok II, Khan Toul Kok, Phnom Penh, Cambodia.",TEL: (855) 23 884 242,FAX: (855) 23 884 814,Campura Triangulum Corporation.png,http://www.campura.com
ASIA PACIFIC,reseller,China,ELECTRONIC PRODUCT SERVICES,Ascendas-Xinsu Industrial Square 5 XingHan Street Block C Floor 4 Suzhou 215021 China,TEL: +86 512 67617757,FAX: ,ELECTRONIC PRODUCT SERVICES.png,https://www.epsglobal.com/manufacturers/edgecore
ASIA PACIFIC,reseller,Hong Kong,Skyware Communications Limited,"Flat 15, 24/F Wing Hing Industrial Building 83-93 Chai Wan Kok Street, Tsuen Wan NT, Hong Kong, China",TEL: (852) 31060868,FAX: (852) 35851011,Skyware Communications Limited.png,http://www.skyware.com.hk
ASIA PACIFIC,reseller,Indonesia,Netphonic Systems,"WTC Mangga Dua, 3A Floor, Suite C#49-52. JL Mangga Dua Raya No 8. Jakarta Pusat 14430, DKI Jakarta, Indonesia",TEL: +62 21 26692500,FAX: +62 21 26692500,Netphonic Systems.png,http://www.netphonic.co.id
ASIA PACIFIC,reseller,Japan,NEC Networks & System Integration Corporation,"1753,Shimonumabe, Nakahara-KU, Kawasaki, Kanagawa 211-8666, Japan",TEL: +81-44-435-1636,FAX: +81-44-435-1639,NEC Networks & System Integration Corporation.png,http://www.nesic.co.jp/solution/product/nw/edgecore.html
ASIA PACIFIC,reseller,Malaysia,VEMAX TECHNOLOGY,"LOT 10995, SECOND FLOOR, JALAN SUNGAI APONG, 93450 KUCHING SARAWAK MALAYSIA",TEL: +6016-8747515,FAX: ,VEMAX TECHNOLOGY.png,https://www.vemax.com.my/
ASIA PACIFIC,reseller,Malaysia,VESC Solution Sdn. Bhd,"Unit 8-3, Wisma PJ5 SOHO, Jalan SS 5D/6, Kelana Jaya, 47301 Petaling Jaya. Selangor Darul Ehsan.",TEL: 1700 81 5648,FAX: 1700 81 3625,VESC Solution Sdn. Bhd.png,http://vesc.com.my
ASIA PACIFIC,reseller,New Zealand,Snapper Network Distributors Ltd,"13 BEATRICE TINSLEY CRESCENT, ALBANY, AUCKLAND",TEL: +64 9 415 4182,FAX: +64 9 415 4137,Snapper Network Distributors Ltd.png,http://www.snappernet.co.nz
ASIA PACIFIC,reseller,Philippines,"Plexus Systems, Inc.","2F Fortress Hill Building, 297 Shaw Boulevard, Mandaluyong City 1550, Philippines",TEL: 63 2 5780371,FAX: ,"Plexus Systems, Inc..png",http://www.plexussystems.asia
ASIA PACIFIC,reseller,Philippines,Amihan Global Strategies ,"501, The Orient Square, Emerald Ave San Antonio, Pasig, 1600 Metro Manila",TEL: +632 801 9942,FAX: ,Amihan Global Strategies .png,http://amihan.net/
ASIA PACIFIC,reseller,Philippines,Porthub Integrated Solutions,Block 3 Lot 3 San Isidro Street Metroville Subdivision Brgy. Manggahan Pasig City Philippines 1611,TEL: +63 (2) 369 -1867,FAX: ,Porthub Integrated Solutions.png,http://www.porthub-is.asia
ASIA PACIFIC,reseller,Philippines,NETDOC DISTRIBUTION CORP,"Unit 907, #269 The Garden Heights, E. Rodriguez Sr. Ave, Quezon City",TEL: (632)570-9915,FAX: (632)570-9915,NETDOC DISTRIBUTION CORP.png,http://www.netdoc.ph/
ASIA PACIFIC,reseller,Singapore,ComWorth Solutions Pte Ltd,"81 Ubi Avenue 4, #06-02 UB.One Singapore 408830","TEL: +65 6748 2260, +65 6909 5198",FAX: ,ComWorth Solutions Pte Ltd.png,http://www.comworth.com.sg/
ASIA PACIFIC,reseller,Singapore,Winzolutions Pte Ltd,"1091 Lower Delta Road, #05-05, Singapore 169202",TEL: +65 67282446,FAX: +65 67282446,no_pic,
ASIA PACIFIC,reseller,Thailand,"Throughwave (Thailand) Co., Ltd.","43 Thai CC Tower, 23rd Floor, Room 234, South Sathorn Rd., Yannawa, Sathorn, Bangkok 10120",TEL: 66-2-210-0968-9 ,FAX: 66-2-210-0980,"Throughwave (Thailand) Co., Ltd..png",https://www.throughwave.co.th
ASIA PACIFIC,reseller,Thailand,Success Network,"81/19 Moo.5 Nawamin Road, Khongkum, Bangkum, Bangkok 10240 Thailand",TEL: 6681-659-4477,FAX: 02-973-1673,Success Network.png,http://www.success-network.co.th/
EMEA,distributor,Armenia,Redinet CJSC,"Azatutyan 24/7-24/8, 0014 Yerevan",TEL: +37410-249106,FAX: +37410-200540,Redinet CJSC.png,http://www.redinet.am
EMEA,distributor,Czech Republic,PROFIcomms s.r.o.,"Turgenevova 5, 625 00 Brno",TEL: +420548210406,FAX: +420548530745,PROFIcomms s.r.o..png,http://www.proficomms.cz
EMEA,distributor,Ethiopia,MART NETWORKS MIDDLE EAST FZC.,"P.O Box 38658, Rak Free Trade Zone, Ras Al Khaimah UAE﻿.",TEL: +971506271652,FAX: ,MART NETWORKS MIDDLE EAST FZC..png,http://www.mart-networks.com/
EMEA,distributor,Germany,3M Service GmbH,"3M Service Gmbh Ahrensburger Str. 8, 30659 Hannover",TEL: (0511) 74 01 92-0,FAX: ,3M Service GmbH.png,http://www.3m-services.de
EMEA,distributor,Germany,ADN – Advanced Digital Network Distribution GmbH,Josef-Haumann-Str. 10 44866 Bochum ,TEL: +49 2327 9912-0,FAX: +49 2327 9912-540,ADN – Advanced Digital Network Distribution GmbH.png,http://www.adn.de/
EMEA,distributor,Germany,Avanis GmbH,"Am Fichtenbrink 38, 33659 Bielefeld",TEL: +49 (0) 5 21/260 12-0 ,FAX: +49 (0) 5 21/260 12-12 ,Avanis GmbH.png,http://www.avanis.de
EMEA,distributor,Germany,Electronic Product Services,"Rheinstrasse 41, 64283 Darmstadt, Germany",TEL: +49 6151 501 2454,FAX: +49 6151 501 2454,Electronic Product Services.png,https://www.epsglobal.com/manufacturers/edgecore
EMEA,distributor,Germany,Stordis,"Rosenwiesstr. 17, 70567 Stuttgart - Germany",TEL: +49 (0)711 342 158 0,FAX: +49 (0)711 342 158 29,Stordis.png,https://www.stordis.com/
EMEA,distributor,Ireland,Electronic Product Services,"Unit 17 Kinsealy Business Park, Kinsealy, Co. Dublin, Ireland.",TEL: +353 1 8038918,FAX: +353 1 8038919,Electronic Product Services.png,https://www.epsglobal.com/manufacturers/edgecore
EMEA,distributor,Italy,Active Solution & Systems S.r.l.,"Via Angelo Moro 97, 20097 San Donato Milanese (Milano)",TEL: +39 02 514843 / +39 02 51621392,FAX: +39 02 51629377,Active Solution & Systems S.r.l..png,http://www.active.it
EMEA,distributor,Kenya,Mart Networks Kenya ,"2nd Floor Museum Hill Centre, Nairobi Kenya",TEL: +254 20 5135200,FAX: ,Mart Networks Kenya .png,http://www.mart-networks.com/
EMEA,distributor,Kuwait,MART NETWORKS MIDDLE EAST FZC.,"P.O Box 38658, Rak Free Trade Zone, Ras Al Khaimah UAE﻿.",TEL: +971506271652,FAX: ,MART NETWORKS MIDDLE EAST FZC..png,http://www.mart-networks.com/
EMEA,distributor,Morocco,ITHACA,Zone Industrielle Ouled Saleh Lot 61 - BP232 - 27 182 Bouskoura MAROC,TEL: (+212) 522 59 22 62,FAX: (+212) 522 59 22 61,ITHACA.png,http://www.ithacamaroc.com/
EMEA,distributor,Nigeria,Distilogix W. Africa,"15E, Muri Okunola Street,  (Harmony House) Victoria  Island, Lagos",TEL: ​+234 90 9809 7663,FAX: ,Distilogix W. Africa.png,https://distilogix.com/
EMEA,distributor,Nigeria,UnoTelos,"Plot 11 Block 29 Mayaki Usman Street Lekki Phase 1, Lagos Nigeria",TEL: +234 1 270 2708,FAX: +234 1 270 2708,UnoTelos.png,http://www.unotelos.com/home/
EMEA,distributor,Nigeria,Lopworks Limited,"3 Olaletan Street, Off Onigefon Road, Oniru, Victoria Island, Lagos",TEL: +234 1 342 2633,FAX: ,Lopworks Limited.png,http://www.lopworks.com/
EMEA,distributor,Oman,MART NETWORKS MIDDLE EAST FZC.,"P.O Box 38658, Rak Free Trade Zone, Ras Al Khaimah UAE﻿.",TEL: +971506271652,FAX: ,MART NETWORKS MIDDLE EAST FZC..png,http://www.mart-networks.com/
EMEA,distributor,Poland,C&C Partners Sp. z o.o,"Ul. 17 Stycznia 119, 121, 64-100 Leszno",TEL: +48655255511,FAX: +48655255557,C&C; Partners Sp. z o.o.png,http://www.ccpartners.pl
EMEA,distributor,Qatar,MART NETWORKS MIDDLE EAST FZC.,"P.O Box 38658, Rak Free Trade Zone, Ras Al Khaimah UAE﻿.",TEL: +971506271652,FAX: ,MART NETWORKS MIDDLE EAST FZC..png,http://www.mart-networks.com/
EMEA,distributor,Romania,Electronic Product Services,Calea Torontalului DN6 KM7 Timisoara 1900 Romania,TEL: +40 256 22 33 07,FAX: +40 256 22 33 07,Electronic Product Services.png,https://www.epsglobal.com/manufacturers/edgecore
EMEA,distributor,Rwanda,MART NETWORKS RWANDA,"Kigali City Tower, Kigali, Rwanda﻿",TEL: (+250) 788180100,FAX: ,MART NETWORKS RWANDA.png,http://www.mart-networks.com/
EMEA,distributor,Slovenia,Iskratel d.o.o.,Iskratel d.o.o.Ljubljanska c. 24a 4000 Kranj Slovenija,TEL: +386 (0)4 207 20 00,FAX: +386 (0)4 207 27 12,Iskratel d.o.o..png,http://www.iskratel.com/en
EMEA,distributor,South Africa,Atec,"Boardwalk Office Park, Unit G9, 107 Haymeadow Street, Faerie Glen, Pretoria 0043",TEL: +27(0)12 991 0960,FAX: +27(0)12 991 0950,Atec.png,http://www.atec.co.za
EMEA,distributor,South Africa,Miro Distribution,"Unit No.6, N1 Industrial Park, Landmarks Avenue, Kosmosdal Ext 11, Samrand 0157",TEL: +27(0)12 657 0960,FAX: +27(0)12 657 0944,Miro Distribution.png,http://www.miro.co.za
EMEA,distributor,Sweden,Direktronik Aktiebolag AB,"Konsul Johnson vag 15, 149 45 Stockholm",TEL: +46852400700,FAX: +46852018121,Direktronik Aktiebolag AB.png,http://www.direktronik.se
EMEA,distributor,Switzerland,BOLL Engineering AG,"Jurastrasse 58, CH-5430 Wettingen",TEL: +41 (0) 56 437 60 60,FAX: +41 (56) 427 29 29,BOLL Engineering AG.png,http://www.boll.ch
EMEA,distributor,Tanzania,Mart Networks Tanzania,"Chole Road, Plot No. 1935/4, Dar es Salaam Tanzania",TEL: (+255) 784 444490​,FAX: ,Mart Networks Tanzania.png,http://www.mart-networks.com/
EMEA,distributor,Tunisia,Distilogix N. Africa,"11 Avenue Hédi Khefecha  2080, Ariana",TEL: +216 24 485 120,FAX: ,Distilogix N. Africa.png,https://distilogix.com/
EMEA,distributor,Turkey,NOKTA ELEKTRONIK VE BILISIM SISTEMLERI SAN. TIC. A.S.,Perpa Ticaret Merkezi A Blok Kat.2 No.1 Okmeydanı - Şişli – Istanbul,TEL: +90 212 222 8780,FAX: +90 212 220 8544,NOKTA ELEKTRONIK VE BILISIM SISTEMLERI SAN. TIC. A.S..png,http://www.noktaelektronik.net/
EMEA,distributor,Turkey,Erete Bilgi Sistemleri Dis. Tic ve San. Ltd. Sti.,19 Mayıs Mah. Güven Sk. No: 4/2 Şişli- İSTANBUL,TEL: +902122128103,FAX: +902122128296,Erete Bilgi Sistemleri Dis. Tic ve San. Ltd. Sti..png,http://www.erete.com.tr
EMEA,distributor,Turkey,NETAS,Yenişehir Mah. Osmanlı Bulvarı No:11 34912 Kurtköy-Pendik / İstanbul,TEL: +90 (216) 522 20 00,FAX: +90 (216) 522 22 22,NETAS.png,http://www.netas.com.tr
EMEA,distributor,Uganda,MART NETWORKS UGANDA,"7th Floor, Regus Course View Towers, Kampala Uganda﻿",TEL: (+256) 703 834115,FAX: ,MART NETWORKS UGANDA.png,http://www.mart-networks.com/
EMEA,distributor,United Arab Emirates,Distilogix HQ (MEA),P.O.Box 483130 Office 222 - Technohub 2 Dubai Silicon Oasis United Arab Emirates,TEL: +971 4 343 4138,FAX: ,Distilogix HQ (MEA).png,https://distilogix.com/
EMEA,distributor,United Arab Emirates,MART NETWORKS MIDDLE EAST FZC.,"P.O Box 38658, Rak Free Trade Zone, Ras Al Khaimah UAE﻿.",TEL: +971506271652,FAX: ,MART NETWORKS MIDDLE EAST FZC..png,http://www.mart-networks.com/
EMEA,distributor,United Arab Emirates,Elite Value Added Distribution FZCO,"Techno Point Building, 2nd Floor, Office No. 210, Dubai Silicon Oasis, P.O.Box 123593 Dubai, UAE",TEL: +971 4 3704378,FAX: +971 4 3704378,Elite Value Added Distribution FZCO.png,http://www.elitevad.com/
EMEA,distributor,United Kingdom,Electronic Product Services,"14A Church Street, Caversham, Reading RG4 8AU, United Kingdom.",TEL: +44 118 9473622,FAX: +44 118 9473644,Electronic Product Services.png,https://www.epsglobal.com/manufacturers/edgecore
EMEA,distributor,United Kingdom,Mayflex,"Excel House, Junction Six Industria­l Park Electric Avenue Birmingham",TEL: +44 (0)121 326 7557,FAX: +44 (0)121 327 1537,Mayflex.png,http://www.mayflex.com/
EMEA,distributor,United Kingdom,Vesper Technologies Ltd,Units 5/6 Rugby Park Bletchley Road Stockport Cheshire SK4 3EJ,TEL: +44 (0)161 947 4321,FAX: +44 (0)161 947 4320,Vesper Technologies Ltd.png,http://www.vespertec.com
EMEA,reseller,Austria,Fionis GmbH,"Anton-Hubmann-Platz 2, 8071 Goessendorf",TEL: +43 3135 40 960-0,FAX: +43 3135 40 960-20,Fionis GmbH.png,http://www.fionis.at
EMEA,reseller,Finland,Data Monitor Communication Finland Oy,"Ruosilankuja 6, FI-00390 Helsinki, Finland",TEL: +35892252270,FAX: +358922438430,Data Monitor Communication Finland Oy.png,http://www.datamonitor.fi
EMEA,reseller,France,CELERIS Informatique,"6 rue de l’Abbé Hazard, 92 000 NANTERRE, France",TEL: 01 71 12 60 23,FAX: 01 71 12 60 25,CELERIS Informatique.png,http://www.celeris.fr/
EMEA,reseller,France,Alyseo,44 rue Armand Carrel 93100 Montreuil !V France,TEL: +33 (0)1 83 35 10 10,FAX: +33 (0)1 83 35 10 10,Alyseo.png,https://www.alyseo.com/
EMEA,reseller,Germany,primeLine Solutions GmbH,Zur Bauernwiese 25 32549 Bad Oeynhausen,TEL: +49 5731 8694-400,FAX: +49 5731 8694-413,primeLine Solutions GmbH.png,https://www.primeline-solutions.com/de/
EMEA,reseller,Germany,Xantaro Deutschland GmbH,"An der Alster 3, 20099 Hamburg, Germany",TEL: +49 (0)40 4134980,FAX: +49 (0)40 413498 444,Xantaro Deutschland GmbH.png,https://www.xantaro.net/
EMEA,reseller,Germany,NAVUM GmbH,"Am Anger 3, 82237 Wörthsee, Germany",TEL: +49 (0) 8153 98409 0,FAX: +49 (0) 8153 98409 200,NAVUM GmbH.png,https://www.navum.de/
EMEA,reseller,Germany,Inter Data Systems GmbH,"Wilhelm-Röntgen-Str. 11 63477 Maintal, Germany",TEL: +49 (0)6109 7668-0,FAX: +49 (0)6109 7668-300,Inter Data Systems GmbH.png,https://www.idsgmbh.com/
EMEA,reseller,Germany,DELTA Computer Products GmbH,Rontgenstr. 4 D-21465 Reinbek bei Hamburg,TEL: +49(0)40 / 300 672 - 0,FAX: +49(0)40 / 300 672 - 11,DELTA Computer Products GmbH.png,http://www.delta.de/
EMEA,reseller,Germany,OSYON GmbH,"Pfuelstr 5, 10997 Berlin",TEL: +493031013532,FAX: +493031013555,OSYON GmbH.png,http://www.osyon.com
EMEA,reseller,Ireland,MBUZZ Europe,"9 Exchange Place, I.F.S.C., Dublin 1, D01N4X6, Ireland",TEL: +34 616 299 200,FAX: ,MBUZZ Europe.png,http://www.mbuzzeurope.com/
EMEA,reseller,Israel,ScaleIL LTD,"6 Hanagar Street, Hod HaSharon 45241, Israel",TEL: 04-821-2676,FAX: ,ScaleIL LTD.png,https://www.scaleil.com/
EMEA,reseller,Israel,LANTECH Systems & Communications Ltd.,"46 Ben Gurion Street, Herzliya",TEL: +972(0)-995-66-908,FAX: +972(0)-995-67-154,LANTECH Systems & Communications Ltd..png,http://www.lan-tech.co.il
EMEA,reseller,Italy,ELECTRONIC'S TIME SRL,VIA MADONNA PICCOLA 32RQ 74015 MARTINA FRANCA (TA),TEL: 0039 080 4802711,FAX: 0039 080 4802700,ELECTRONIC'S TIME SRL.png,http://www.electronicstime.it
EMEA,reseller,Lithuania,Balticum TV Ltd.,"Taikos avn 101D, LT-94198 Klaipeda, Lithuania",TEL: +37046390700,FAX: +37046342815,Balticum TV Ltd..png,http://www.balticum.lt/
EMEA,reseller,Netherlands,Exclusive Networks,Ekkersrijt 4601 5692 DR SON,TEL: +31 499 462121,FAX: +31 499 462120,Exclusive Networks.png,http://www.exclusive-networks.nl 
EMEA,reseller,Netherlands,Travion IT Distribution,"Stationsstraat 31, 6515 AA Nijmegen",TEL: +31243578822,FAX: +31243578833,Travion IT Distribution.png,http://www.travion.nl
EMEA,reseller,Netherlands,Xentech B.V.,"Vredeweg 46 / D1, 1505-HH, Zaandam, Netherlands",TEL: +31-(0)85 002 0796,FAX: ,Xentech B.V..png,http://www.xentech.nl/
EMEA,reseller,Netherlands,Circle B,"Zekeringstraat 17, 1014 BM, Amsterdam, The Netherlands",TEL: +31 85 800 0430,FAX: ,no_pic,https://www.circleb.eu/
EMEA,reseller,Netherlands,Storage Quality Solution,"Korenpad 6, 6534 AS Nijmegen, The Netherlands",TEL: +31 24 8200334,FAX: ,Storage Quality Solution.png,http://www.storageqs.com/
EMEA,reseller,Portugal,TELCARIA,"Barrionuevo 8, Local 1, 28911 Leganés (Madrid), Spain",TEL: +34 910261014,FAX: +34 910261014,TELCARIA.png,https://www.telcaria.com/
EMEA,reseller,Slovenia,REAL security d.o.o,"Zolgarjeva ulica 17, 2000 Maribor, Slovenia",TEL: 386 2 234 74 74,FAX: 386 2 234 74 75,REAL security d.o.o.png,https://www.real-sec.com/
EMEA,reseller,South Africa,AlphaEdge Technologies,"646 Kango Street, Erasmus Kloof x 3, Pretoria, South Africa",TEL: +27 (0) 66 235 2700,FAX: ,AlphaEdge Technologies.png,http://www.alphaedge.co.za/
EMEA,reseller,Spain,Telcaria,"Barrionuevo 8, Local 1, 28911 Leganés (Madrid), Spain",TEL: +34 910261014,FAX: +34 910261014,Telcaria.png,https://www.telcaria.com/
EMEA,reseller,Turkey,Ergen Elektronik,Üçgen Mah. 97 Sok. Cangar Apt. No:6/B-C Muratpaşa / Antalya,TEL: +90 242 247 1200,FAX: +90 242 247 4377,Ergen Elektronik.png,https://www.ergenelektronik.com/
EMEA,reseller,United Kingdom,Utopia Technology Limited,"15 Carnarvon Street, Manchester M3 1HJ, United Kingdom",TEL: 0333 241 2526,FAX: ,Utopia Technology Limited.png,http://www.utopiatechnology.co.uk/
EMEA,reseller,United Kingdom,Telent Technology Services Ltd,"Point 3, Haywood Road, Warwick, CV34 5AH",TEL: +44 (0)1926 693 000,FAX: ,Telent Technology Services Ltd.png,https://telent.com/
NORTH AMERICA,distributor,Canada,Planiselect Inc.,"653, ave Léo-Lacombe Laval (Québec) H7N 3Y7",TEL: 450-663-3973,FAX: ,Planiselect Inc..png,https://www.planiselect.com/
NORTH AMERICA,distributor,Canada,E.C.I. NETWORKS INC.,"6500, Trans-Canadian Highway, Suite 400 Pointe-Claire, QC, CANADA",TEL: 1-800-967-1672,FAX: ,E.C.I. NETWORKS INC..png,https://ecin.ca/
NORTH AMERICA,distributor,Canada,info-logic ebm,"1400, boulevard Marie-Victorin, suite 103  St-Bruno (Québec) J3V 6B9  Canada",TEL: 1 450 653-7575 ,FAX: 1 450 441-6224,info-logic ebm.png,http://www.infologicebm.com
NORTH AMERICA,distributor,United States,ASI,"48289 Fremont Blvd. Fremont, CA 94538",TEL: (510) 226-8000,FAX: (510) 445-4157,ASI.png,http://www.asipartner.com/
NORTH AMERICA,distributor,United States,Avnet,"2211 S. 47th St. Phoenix, Arizona 85034 USA",TEL: 480-643-2000,FAX: ,Avnet.png,http://www.avnet.com
NORTH AMERICA,distributor,United States,CTD,"1200 Woodruff Rd, F9 Greenville, SC 29607",TEL: 1-864-527-9600,FAX: 1-864-527-9610,CTD.png,http://www.ctdconnect.com
NORTH AMERICA,distributor,United States,EPS Global LLC,7920 Georgetown Road  Suite 800  Indianapolis  Indiana 46268  USA,TEL: 1-317-222- 6334,FAX: ,EPS Global LLC.png,https://www.epsglobal.com/manufacturers/edgecore
NORTH AMERICA,distributor,United States,"Global Convergence, Inc.","700 Brooker Creek Blvd. Ste. 1000 Oldsmar, FL 34677",TEL: (813) 925-6021,FAX: ,"Global Convergence, Inc..png",http://globalconvergence.com/
NORTH AMERICA,distributor,United States,Network Distributors,894 Faulstich Bld. A San Jose CA 95112,TEL: 1-408-392-0066,FAX: ,Network Distributors.png,http://www.networkdistributors.com/
NORTH AMERICA,distributor,United States,SYNNEX,"44201 Nobel Drive Fremont, CA 95014",TEL: (510) 656-3333,FAX: (510) 668-3777,SYNNEX.png,http://www.synnex.com
NORTH AMERICA,distributor,United States,Tech Data,"8700 S Price Road Tempe, AZ 85284",TEL: 800-237-8931,FAX: ,Tech Data.png,https://www.techdata.com/
NORTH AMERICA,reseller,Canada,Solimedia Technology Inc.,329-470 Granville Street Vancouver BC V6C 1V5,TEL: 604 568 9797,FAX: ,Solimedia Technology Inc..png,https://solimedia.net/
NORTH AMERICA,reseller,Canada,Nine-One-One Communication Supply Inc.,Bay 'F' 7004-5th Street S.E. Calgary AB T2H 2G3 Canada,TEL: (800) 665-9911 (in Canada) or (403) 252-0911,FAX: (800) 268-0911 (in Canada) or (403) 253-3471,Nine-One-One Communication Supply Inc..png,http://www.nine-one-one.ca
NORTH AMERICA,reseller,Canada,Tuangru,"Suite 800–510 West Hastings Street Vancouver, BC V6B 1L8",TEL: 1-866-612-3637,FAX: ,Tuangru.png,http://www.tuangru.com/
NORTH AMERICA,reseller,United States,Advanced HPC,Corporate Headquarters 8228 Mercury Court Suite 100,TEL: (858) 716-8262,FAX: (858) 716-8233,Advanced HPC.png,http://www.advancedhpc.com/
NORTH AMERICA,reseller,United States,AMAX,"1565 Reliance Way Fremont, CA 94539, USA",TEL: (800) 800-6328,FAX: ,AMAX.png,https://www.amax.com/
NORTH AMERICA,reseller,United States,Anixter,"Anixter Inc. 2301 Patriot Blvd. Glenview, IL 60026 United States of America",TEL: (800) 323 8167,FAX: ,Anixter.png,http://www.anixter.com
NORTH AMERICA,reseller,United States,Blue Core,"BlueCore Networks 28 Lord Road, Suite 260 Marlboro MA 01752",TEL: 800 708-2785,FAX: ,Blue Core.png,http://www.bluecorenetworks.com
NORTH AMERICA,reseller,United States,"Blue Chip Tek, Inc.","3030 Olcott St Santa Clara, CA 95054",TEL: 408-731-7700,FAX: 408-731-7701,"Blue Chip Tek, Inc..png",http://bluechiptek.com/
NORTH AMERICA,reseller,United States,Cambridge Computer,"Cambridge Computer 271 Waverley Oaks Road Suite 301 Waltham, MA 02452",TEL: 781 250 3000,FAX: 781 250 3100,Cambridge Computer.png,http://www.cambridgecomputer.com
NORTH AMERICA,reseller,United States,Champion One,"23645 Mercantile Rd. Beachwood, OH 44122",TEL: 216-831-1800,FAX: 216-831-2541,Champion One.png,http://www.championone.com/
NORTH AMERICA,reseller,United States,Datainterfaces.com,"3000F Danville Blvd., Ste 300 Alamo, CA 94507, USA",TEL: 888-959-3282,FAX: 503-764-1462,Datainterfaces.com.png,http://datainterfaces.com/
NORTH AMERICA,reseller,United States,Colfax Direct,"750 Palomar Avenue Sunnyvale, CA 94085, USA",TEL: (408) 730 2275,FAX: (408) 730 2274,Colfax Direct.png,http://www.colfaxdirect.com/store/pc/home.asp
NORTH AMERICA,reseller,United States,ePLUS,"13595 Dulles Technology Drive  Herndon, VA 20171-3413",TEL: 703-984-8400,FAX: 703-984-8600,ePLUS.png,http://www.eplus.com/
NORTH AMERICA,reseller,United States,GDT,"999 Metromedia Pl,  Dallas, TX 75247",TEL: 214-857-6997,FAX: 214-857-6500 ,GDT.png,https://www.gdt.com/
NORTH AMERICA,reseller,United States,Hardware Nation,"2390 Satellite Blvd, Suite P, Buford, GA 30518",TEL: 770-924-5847,FAX: ,Hardware Nation.png,http://www.hardwarenation.com/
NORTH AMERICA,reseller,United States,IWNetworks,"44235 Nobel Drive. Fremont, CA. 94538",TEL: (510) 248-4448,FAX: (510) 651-6922,IWNetworks.png,http://www.iwnetworks.com/
NORTH AMERICA,reseller,United States,Microcom Technologies,"26635 Agoura Road Calabasas, CA 91302",TEL: 818.880.8008,FAX: 818.880.8150,Microcom Technologies.png,http://www.microcom.us/
NORTH AMERICA,reseller,United States,Myriad Supply,"22 West 19th Street, New York,  NY,  10011, USA",TEL: 866-725-1025,FAX: ,Myriad Supply.png,http://www.myriadsupply.com/
NORTH AMERICA,reseller,United States,PA Computer Connections,"789 East Pittsburgh Street, Greensburg, PA 15601",TEL: 724-838-7526/800-640-7506,FAX: 724-838-1071,PA Computer Connections.png,http://www.paconnect.com/
NORTH AMERICA,reseller,United States,Racklive,"48761 Kato Road  Fremont, CA 94538 ",TEL: 1-650-230-8060,FAX: ,Racklive.png,http://racklive.com/
NORTH AMERICA,reseller,United States,"Redapt, Inc","12226 134th Court NE Redmond, WA 98052",TEL: 425-882-0400,FAX: 425-882-0320,"Redapt, Inc.png",https://www.redapt.com/
NORTH AMERICA,reseller,United States,SHI,"290 Davidson Avenue Somerset, NJ 08873",TEL: 888-764-8888,FAX: ,SHI.png,https://www.shi.com/default.aspx
NORTH AMERICA,reseller,United States,Sotel Systems,"2465 Centerline Industrial Dr. Maryland Heights, MO 63043 ",TEL: (866) 467-6835 ,FAX: ,Sotel Systems.png,http://www.sotelsystems.com/
NORTH AMERICA,reseller,United States,TESSCO,"11126 McCormick Road Hunt Valley, MD 21031-1494",TEL:  +1 800 472 7373,FAX: +1 410 229 1480,TESSCO.png,https://www.tessco.com/
NORTH AMERICA,reseller,United States,Will Jaya,"19565 E. Walnut Dr. South, #B10,  Rowland Heights, CA 91748",TEL: (844) 996-0699,FAX: 909-869-7277,Will Jaya.png,https://www.willjaya.com/
NORTH AMERICA,reseller,United States,WWT,"60 Weldon Parkway,  St. Louis, Missouri 63043",TEL: 800-432-7008,FAX: 314-569-8300,WWT.png,https://www2.wwt.com/
LATIN AMERICA,distributor,Argentina,Tiger Technologies S.A.,Avenida Cabildo 4769 4to A Buenos Aires,TEL: 54 11 4393 2306,FAX: ,Tiger Technologies S.A..png,http://tigertech.com.ar/
LATIN AMERICA,distributor,Brazil,Seger Technology,"Rua Pais Leme, 215 - Sala 1407 Ed. Thera Offices - Pinheiros 05424-150 | São Paulo, SP",TEL: +55 (11) 2924-8670,FAX: ,Seger Technology.png,http://www.segertech.com.br/
LATIN AMERICA,distributor,Peru (Perú),FONPERU,"Av. Larco 1150 Of. 606 Miraflores, Lima 18 - Perú",TEL: 0051 1 255-8587,FAX: 0051 1 255-8633,FONPERU.png,http://fonperu.com/es/nosotros.html
LATIN AMERICA,reseller,Colombia,Konectra,Carrera 10 No. 97 A -13 Torre B Oficina 202,TEL: (+571) 746 6831,FAX: ,Konectra.png,http://www.konectra.com
LATIN AMERICA,reseller,Costa Rica,"Costa Rica Cloud Technology CRCT, Sociedad Anónima","200 metros oeste de los semáforos del Country Club Oficentro Condal, Local # 3 San Rafael, Escazú, San José, Costa Rica",TEL: +506 4000.0644,FAX: ,"Costa Rica Cloud Technology CRCT, Sociedad Anónima.png",http://www.crcloudtech.com
LATIN AMERICA,reseller,Uruguay,Teledata,Canelones 2101 Montevideo Uruguay,TEL: (598) 24013864,FAX: (598) 24013864,Teledata.png,http://www.teledata.com.uy/
RUSSIA AND CIS,distributor,Russia,VIMCOM,"111524 , city of Moscow , ul. Perovskaya, d. 1",TEL: +7 (495) 737-37-57,FAX: +7 (495) 737-37-55,VIMCOM.png,http://www.vimcom.ru
RUSSIA AND CIS,distributor,Russia,Marvel,"89 Krasnobogatyrskaya str.  Moscow, 107061, Russian Federation",TEL: +7 (495) 7458008,FAX: ,Marvel.png,http://www.marvel.ru/en/
RUSSIA AND CIS,distributor,Russia,CompTek,"floor 8, entrance 5, building1 Russia, Moscow, Business-Park Rumiantsevo",TEL: +7 495 789-65-65,FAX: ,CompTek.png,http://comptek.ru/
RUSSIA AND CIS,distributor,Russia,3Logic,"Berezhkovskaya 20/33, Moscow, Russia",TEL: +74952077557,FAX: ,3Logic.png,https://3logic.ru/
RUSSIA AND CIS,distributor,Ukraine,ROMSAT,"03142, Ukaine, Kyiv,  Vasyl Stus str. 35-37",TEL: +380 (44) 499 7969,FAX: + 380 (44) 498 7265,ROMSAT.png,http://www.romsat.ua
RUSSIA AND CIS,reseller,Belarus,FIBERGET ,"Брестская обл., Брестский р-н, Тельминский с/с, д.9",TEL: + 375-447-952-007,FAX: ,FIBERGET .png,http://fiberget.by 
RUSSIA AND CIS,reseller,Belarus,ASBIS Belarus,"223021, Беларусь, Минск, Меньковский тракт 10, 2 этаж",TEL: +375293879487,FAX: +375172793650,ASBIS Belarus.png,http://www.asbis.by
RUSSIA AND CIS,reseller,Russia,AMT,"Shabolovka St, 31, корп. Б、Moscow",TEL: +7 (495) 725 7660,FAX: ,AMT.png,http://www.amt.ru/
RUSSIA AND CIS,reseller,Russia,APM,"127106, Moscow, Hotel Passage, d.4B. office 516",TEL: +7 (495) 921-33-07,FAX: ,APM.png,http://apm-telecom.com
RUSSIA AND CIS,reseller,Russia,FALCON-S,"127287 Moscow, ul. 2nd Khutorskaya, d. 19/13, Bldg. 2 Driving directions",TEL: (495) 611-9296,FAX: (495) 611-8055,no_pic,http://www.falcon-s.ru
RUSSIA AND CIS,reseller,Russia,Optcom,"125414, г. Москва, ул. Клинская д.6, стр. 1 Время работы: 9.00-18.00. СБ-ВС выходной.",TEL: (495) 649-666-7 ,FAX: ,Optcom.png,http://www.optcom.ru/
RUSSIA AND CIS,reseller,Russia,RK-Telecom,"Russia, 105005, Moscow, Radio Street, 24, building 1, Business center ""Yauza Tower""",TEL: +7 (499) 707 78 87,FAX: +7 (499) 707 7887,RK-Telecom.png,http://www.rktelecom.ru
RUSSIA AND CIS,reseller,Russia,A-SYSTEMS,"105066, Russia, Moscow, ul. Olkhovskaya, d. 4, Bldg. 2 - BC «Melnikoff House»",TEL: +7 (495) 644 47 64,FAX: ,A-SYSTEMS.png,http://www.a-systems.ru.com
RUSSIA AND CIS,reseller,Russia,SIA 3A alliance,"Lielezeres 10-40, LV-1007",TEL: +371 20026370,FAX: ,SIA 3A alliance.png,http://www.3a-alliance.com/
RUSSIA AND CIS,reseller,Russia,Gars Telecom,"123557, Москва, Островная ул. влад. 2, оф.119",TEL: (495) 748-0099,FAX: ,Gars Telecom.png,http://www.garstelecom.ru
RUSSIA AND CIS,reseller,Russia,Impulse Telecom,"127106, Россия, город Москва, Алтуфьевское шоссе, д. 27",TEL: 7 (495) 988-06-61 ,FAX: ,Impulse Telecom.png,http://www.impulstelecom.ru/
RUSSIA AND CIS,reseller,Russia,Justo Group,"197022, Санкт-Петербург, ул. Инструментальная 3 - оф. 206.",TEL: (812) 677-94-47,FAX: ,no_pic,http://www.justogroup.ru/
RUSSIA AND CIS,reseller,Russia,Karat-Svyaz,"644065 г. Омск, ул. Заводская, д. 2",TEL: (3812) 668-638,FAX: ,Karat-Svyaz.png,http://www.karat-omsk.ru/
RUSSIA AND CIS,reseller,Russia,New Line Company,"141090 Московская область, г. Юбилейный, ул. Военных Строителей, д. 8, офис",TEL: +7 495 646-14-28,FAX: ,New Line Company.png,http://www.nl-company.ru/
RUSSIA AND CIS,reseller,Russia,Nobel,"123098, Москва, ул. Рогова, д. 9, корп. 2, офис 101",TEL: (495) 784-7636,FAX: ,Nobel.png,http://www.nobel.su/
RUSSIA AND CIS,reseller,Russia,NVision Group,"Россия, 115054, Москва, ул. Дубининская, д. 53, стр. 5",TEL: 7 (495) 641-12-12,FAX: ,no_pic,http://www.nvg.ru/
RUSSIA AND CIS,reseller,Russia,Optical Technology,"117587, г. Москва, Варшавское шоссе д. 125",TEL: 7 (495) 507-6436,FAX: ,no_pic,www.svarka-optiki.ru
RUSSIA AND CIS,reseller,Russia,Optivera,"г. Екатеринбург, ул.Первомайская, д.104, оф.127",TEL: 8-343-346-6000,FAX: ,no_pic,http://www.optivera.ru/
RUSSIA AND CIS,reseller,Russia,Prius IT,"115230, г Москва, Хлебозаводский проезд, д. 7, стр. 9, этаж 9, пом. XVI, комн 2.",TEL: 7 (495) 739-7967,FAX: ,Prius IT.png,http://www.lantk.ru/
RUSSIA AND CIS,reseller,Russia,RL-Group,"107076, улица Электрозаводская, дом 33, офис 601",TEL: 7 (495) 989-16-42,FAX: ,RL-Group.png,www.rl-group.ru
RUSSIA AND CIS,reseller,Russia,SATEL,"101000, г. Москва, ул. Покровка, д. 14/2, стр. 1",TEL: (495) 785-88-77,FAX: ,SATEL.png,http://www.satel.org/
RUSSIA AND CIS,reseller,Russia,Startelecom,"125212, г. Москва, ул. Выборгская, д. 16, стр. 1, зона Г.",TEL: (495) 747-11-11,FAX: ,Startelecom.png,http://www.startelecom.ru/
RUSSIA AND CIS,reseller,Russia,TK-Plus,"Санкт-Петербург, 194044, ул.Гельсингфорсская, д.3, оф.406",TEL: 8(812)4585080,FAX: ,TK-Plus.png,http://www.tk-plus.ru/
RUSSIA AND CIS,reseller,Russia,Unicord,"127051, Москва г., Малый Сухаревский переулок, д. 9, стр.1, офис №36",TEL: 7(495)663-9988,FAX: ,Unicord.png,www.ucord.ru
RUSSIA AND CIS,reseller,Russia,Vegatelecom,"191167, г. Санкт-Петербург, ул. Атаманская д. 3/6",TEL: 7 (812) 988-19-50,FAX: ,Vegatelecom.png,www.vegatelecom.ru
RUSSIA AND CIS,reseller,Russia,Viascom,"г. Москва, ул. Буракова, д. 27",TEL: (495) 363 80 39,FAX: ,Viascom.png,www.viascom.ru
RUSSIA AND CIS,reseller,Russia,Wide IT,"107078, Москва, Орликов пер., д. 3, стр. 1",TEL: 8 (495) 640-8020,FAX: ,Wide IT.png,http://www.wideit.ru/
RUSSIA AND CIS,reseller,Russia,X-Com,"г. Москва, 125130, ул. Выборгская, д. 22, стр. 3",TEL: 8 (495) 7-999-600,FAX: ,no_pic,http://www.xcom.ru/
RUSSIA AND CIS,reseller,Russia,Electronic Product Services Rus (LLC EPS Rus),"ul. Letnikovskaya, d. 11/10, Str. 3, Office 105, Moscow 115114, Russian Federation",TEL: +7 495 640 99 48,FAX: +7 495 640 99 48,Electronic Product Services Rus (LLC EPS Rus).png,http://www.epsglobal.com
